DELTA 2 R/B(1)          
1 20453U 90008B   26035.28006794  .00068829  00000+0  92277-3 0  9995
2 20453  35.6065  33.3342 0096802 307.5886  51.6090 15.51337066920932
COSMOS 2058             
1 20465U 90010A   26035.27524110  .00004266  00000+0  25332-3 0  9990
2 20465  82.4632  80.3459 0012113  90.1188 270.1430 15.11009395937198
SL-14 R/B               
1 20466U 90010B   26035.23308890  .00000579  00000+0  67239-4 0  9998
2 20466  82.5035 298.8150 0021131  52.8541 307.4600 14.83538200923524
SL-14 R/B               
1 20511U 90018B   26035.48865667  .00000458  00000+0  54528-4 0  9997
2 20511  82.5186 254.1295 0015861 196.5576 163.5122 14.82110106917662
HST                     
1 20580U 90037B   26035.33295654  .00008182  00000+0  27483-3 0  9992
2 20580  28.4666 267.4622 0001954  99.7256 260.3560 15.28943129768204
SL-16 R/B               
1 20625U 90046B   26035.33064491 -.00000039  00000+0  45699-5 0  9990
2 20625  70.9996   7.9705 0014505 345.9205  14.1511 14.15004933843679
COSMOS 2084             
1 20663U 90055A   26035.51225104  .00003019  00000+0  22218-3 0  9992
2 20663  62.7895  88.7168 0022393 183.1560 176.9403 15.05432971931322
SL-6 R/B(2)             
1 20666U 90055D   26035.31703887  .00003402  00000+0  26235-3 0  9991
2 20666  62.7849   7.3223 0019822 337.2344  22.7874 15.03408518933171
SL-8 R/B                
1 20775U 90078B   26035.16538930  .00016660  00000+0  49277-3 0  9996
2 20775  82.9030 281.4322 0367431 126.3077 237.2671 14.87938950804315
SL-8 R/B                
1 21088U 91006B   26035.50145727  .00000005  00000+0 -10990-4 0  9990
2 21088  82.9427 194.7212 0023457 126.6427 291.8054 13.77491863759502
OKEAN-3                 
1 21397U 91039A   26035.42828384  .00003786  00000+0  26750-3 0  9995
2 21397  82.5182   9.0561 0016339  85.2807 275.0285 15.04535730860032
COSMOS 2151             
1 21422U 91042A   26035.46337420  .00002078  00000+0  16488-3 0  9998
2 21422  82.4970 115.7257 0013008 165.3892 194.7711 14.99972829858211
