CCSDS_OMM_VERS = 2.0
CREATION_DATE  = 
ORIGINATOR     = 

OBJECT_NAME    = DELTA 2 R/B(1)
OBJECT_ID      = 1990-008B
CENTER_NAME    = EARTH
REF_FRAME      = TEME
TIME_SYSTEM    = UTC
MEAN_ELEMENT_THEORY = SGP/SGP4

EPOCH          = 2026-02-04T06:43:17.870016
MEAN_MOTION    = 15.51337066
ECCENTRICITY   = .0096802
INCLINATION    = 35.6065
RA_OF_ASC_NODE = 33.3342
ARG_OF_PERICENTER = 307.5886
MEAN_ANOMALY   = 51.6090

EPHEMERIS_TYPE = 0
CLASSIFICATION_TYPE = U
NORAD_CAT_ID   = 20453
ELEMENT_SET_NO = 999
REV_AT_EPOCH   = 92093
BSTAR          = .92277E-3
MEAN_MOTION_DOT = .68829E-3
MEAN_MOTION_DDOT = 0

CCSDS_OMM_VERS = 2.0
CREATION_DATE  = 
ORIGINATOR     = 

OBJECT_NAME    = COSMOS 2058
OBJECT_ID      = 1990-010A
CENTER_NAME    = EARTH
REF_FRAME      = TEME
TIME_SYSTEM    = UTC
MEAN_ELEMENT_THEORY = SGP/SGP4

EPOCH          = 2026-02-04T06:36:20.831040
MEAN_MOTION    = 15.11009395
ECCENTRICITY   = .0012113
INCLINATION    = 82.4632
RA_OF_ASC_NODE = 80.3459
ARG_OF_PERICENTER = 90.1188
MEAN_ANOMALY   = 270.1430

EPHEMERIS_TYPE = 0
CLASSIFICATION_TYPE = U
NORAD_CAT_ID   = 20465
ELEMENT_SET_NO = 999
REV_AT_EPOCH   = 93719
BSTAR          = .25332E-3
MEAN_MOTION_DOT = .4266E-4
MEAN_MOTION_DDOT = 0

CCSDS_OMM_VERS = 2.0
CREATION_DATE  = 
ORIGINATOR     = 

OBJECT_NAME    = SL-14 R/B
OBJECT_ID      = 1990-010B
CENTER_NAME    = EARTH
REF_FRAME      = TEME
TIME_SYSTEM    = UTC
MEAN_ELEMENT_THEORY = SGP/SGP4

EPOCH          = 2026-02-04T05:35:38.880960
MEAN_MOTION    = 14.83538200
ECCENTRICITY   = .0021131
INCLINATION    = 82.5035
RA_OF_ASC_NODE = 298.8150
ARG_OF_PERICENTER = 52.8541
MEAN_ANOMALY   = 307.4600

EPHEMERIS_TYPE = 0
CLASSIFICATION_TYPE = U
NORAD_CAT_ID   = 20466
ELEMENT_SET_NO = 999
REV_AT_EPOCH   = 92352
BSTAR          = .67239E-4
MEAN_MOTION_DOT = .579E-5
MEAN_MOTION_DDOT = 0

CCSDS_OMM_VERS = 2.0
CREATION_DATE  = 
ORIGINATOR     = 

OBJECT_NAME    = SL-14 R/B
OBJECT_ID      = 1990-018B
CENTER_NAME    = EARTH
REF_FRAME      = TEME
TIME_SYSTEM    = UTC
MEAN_ELEMENT_THEORY = SGP/SGP4

EPOCH          = 2026-02-04T11:43:39.936288
MEAN_MOTION    = 14.82110106
ECCENTRICITY   = .0015861
INCLINATION    = 82.5186
RA_OF_ASC_NODE = 254.1295
ARG_OF_PERICENTER = 196.5576
MEAN_ANOMALY   = 163.5122

EPHEMERIS_TYPE = 0
CLASSIFICATION_TYPE = U
NORAD_CAT_ID   = 20511
ELEMENT_SET_NO = 999
REV_AT_EPOCH   = 91766
BSTAR          = .54528E-4
MEAN_MOTION_DOT = .458E-5
MEAN_MOTION_DDOT = 0

CCSDS_OMM_VERS = 2.0
CREATION_DATE  = 
ORIGINATOR     = 

OBJECT_NAME    = HST
OBJECT_ID      = 1990-037B
CENTER_NAME    = EARTH
REF_FRAME      = TEME
TIME_SYSTEM    = UTC
MEAN_ELEMENT_THEORY = SGP/SGP4

EPOCH          = 2026-02-04T07:59:27.445056
MEAN_MOTION    = 15.28943129
ECCENTRICITY   = .0001954
INCLINATION    = 28.4666
RA_OF_ASC_NODE = 267.4622
ARG_OF_PERICENTER = 99.7256
MEAN_ANOMALY   = 260.3560

EPHEMERIS_TYPE = 0
CLASSIFICATION_TYPE = U
NORAD_CAT_ID   = 20580
ELEMENT_SET_NO = 999
REV_AT_EPOCH   = 76820
BSTAR          = .27483E-3
MEAN_MOTION_DOT = .8182E-4
MEAN_MOTION_DDOT = 0

CCSDS_OMM_VERS = 2.0
CREATION_DATE  = 
ORIGINATOR     = 

OBJECT_NAME    = SL-16 R/B
OBJECT_ID      = 1990-046B
CENTER_NAME    = EARTH
REF_FRAME      = TEME
TIME_SYSTEM    = UTC
MEAN_ELEMENT_THEORY = SGP/SGP4

EPOCH          = 2026-02-04T07:56:07.720224
MEAN_MOTION    = 14.15004933
ECCENTRICITY   = .0014505
INCLINATION    = 70.9996
RA_OF_ASC_NODE = 7.9705
ARG_OF_PERICENTER = 345.9205
MEAN_ANOMALY   = 14.1511

EPHEMERIS_TYPE = 0
CLASSIFICATION_TYPE = U
NORAD_CAT_ID   = 20625
ELEMENT_SET_NO = 999
REV_AT_EPOCH   = 84367
BSTAR          = .45699E-5
MEAN_MOTION_DOT = -.39E-6
MEAN_MOTION_DDOT = 0

CCSDS_OMM_VERS = 2.0
CREATION_DATE  = 
ORIGINATOR     = 

OBJECT_NAME    = COSMOS 2084
OBJECT_ID      = 1990-055A
CENTER_NAME    = EARTH
REF_FRAME      = TEME
TIME_SYSTEM    = UTC
MEAN_ELEMENT_THEORY = SGP/SGP4

EPOCH          = 2026-02-04T12:17:38.489856
MEAN_MOTION    = 15.05432971
ECCENTRICITY   = .0022393
INCLINATION    = 62.7895
RA_OF_ASC_NODE = 88.7168
ARG_OF_PERICENTER = 183.1560
MEAN_ANOMALY   = 176.9403

EPHEMERIS_TYPE = 0
CLASSIFICATION_TYPE = U
NORAD_CAT_ID   = 20663
ELEMENT_SET_NO = 999
REV_AT_EPOCH   = 93132
BSTAR          = .22218E-3
MEAN_MOTION_DOT = .3019E-4
MEAN_MOTION_DDOT = 0

CCSDS_OMM_VERS = 2.0
CREATION_DATE  = 
ORIGINATOR     = 

OBJECT_NAME    = SL-6 R/B(2)
OBJECT_ID      = 1990-055D
CENTER_NAME    = EARTH
REF_FRAME      = TEME
TIME_SYSTEM    = UTC
MEAN_ELEMENT_THEORY = SGP/SGP4

EPOCH          = 2026-02-04T07:36:32.158368
MEAN_MOTION    = 15.03408518
ECCENTRICITY   = .0019822
INCLINATION    = 62.7849
RA_OF_ASC_NODE = 7.3223
ARG_OF_PERICENTER = 337.2344
MEAN_ANOMALY   = 22.7874

EPHEMERIS_TYPE = 0
CLASSIFICATION_TYPE = U
NORAD_CAT_ID   = 20666
ELEMENT_SET_NO = 999
REV_AT_EPOCH   = 93317
BSTAR          = .26235E-3
MEAN_MOTION_DOT = .3402E-4
MEAN_MOTION_DDOT = 0

CCSDS_OMM_VERS = 2.0
CREATION_DATE  = 
ORIGINATOR     = 

OBJECT_NAME    = SL-8 R/B
OBJECT_ID      = 1990-078B
CENTER_NAME    = EARTH
REF_FRAME      = TEME
TIME_SYSTEM    = UTC
MEAN_ELEMENT_THEORY = SGP/SGP4

EPOCH          = 2026-02-04T03:58:09.635520
MEAN_MOTION    = 14.87938950
ECCENTRICITY   = .03674317
INCLINATION    = 82.9030
RA_OF_ASC_NODE = 281.4322
ARG_OF_PERICENTER = 126.3077
MEAN_ANOMALY   = 237.2671

EPHEMERIS_TYPE = 0
CLASSIFICATION_TYPE = U
NORAD_CAT_ID   = 20775
ELEMENT_SET_NO = 999
REV_AT_EPOCH   = 80431
BSTAR          = .49276736E-3
MEAN_MOTION_DOT = .1666E-3
MEAN_MOTION_DDOT = 0

CCSDS_OMM_VERS = 2.0
CREATION_DATE  = 
ORIGINATOR     = 

OBJECT_NAME    = SL-8 R/B
OBJECT_ID      = 1991-006B
CENTER_NAME    = EARTH
REF_FRAME      = TEME
TIME_SYSTEM    = UTC
MEAN_ELEMENT_THEORY = SGP/SGP4

EPOCH          = 2026-02-04T12:02:05.908128
MEAN_MOTION    = 13.77491863
ECCENTRICITY   = .0023457
INCLINATION    = 82.9427
RA_OF_ASC_NODE = 194.7212
ARG_OF_PERICENTER = 126.6427
MEAN_ANOMALY   = 291.8054

EPHEMERIS_TYPE = 0
CLASSIFICATION_TYPE = U
NORAD_CAT_ID   = 21088
ELEMENT_SET_NO = 999
REV_AT_EPOCH   = 75950
BSTAR          = -.1099E-4
MEAN_MOTION_DOT = .5E-7
MEAN_MOTION_DDOT = 0

CCSDS_OMM_VERS = 2.0
CREATION_DATE  = 
ORIGINATOR     = 

OBJECT_NAME    = OKEAN-3
OBJECT_ID      = 1991-039A
CENTER_NAME    = EARTH
REF_FRAME      = TEME
TIME_SYSTEM    = UTC
MEAN_ELEMENT_THEORY = SGP/SGP4

EPOCH          = 2026-02-04T10:16:43.723776
MEAN_MOTION    = 15.04535730
ECCENTRICITY   = .0016339
INCLINATION    = 82.5182
RA_OF_ASC_NODE = 9.0561
ARG_OF_PERICENTER = 85.2807
MEAN_ANOMALY   = 275.0285

EPHEMERIS_TYPE = 0
CLASSIFICATION_TYPE = U
NORAD_CAT_ID   = 21397
ELEMENT_SET_NO = 999
REV_AT_EPOCH   = 86003
BSTAR          = .2675E-3
MEAN_MOTION_DOT = .3786E-4
MEAN_MOTION_DDOT = 0

CCSDS_OMM_VERS = 2.0
CREATION_DATE  = 
ORIGINATOR     = 

OBJECT_NAME    = COSMOS 2151
OBJECT_ID      = 1991-042A
CENTER_NAME    = EARTH
REF_FRAME      = TEME
TIME_SYSTEM    = UTC
MEAN_ELEMENT_THEORY = SGP/SGP4

EPOCH          = 2026-02-04T11:07:15.530880
MEAN_MOTION    = 14.99972829
ECCENTRICITY   = .0013008
INCLINATION    = 82.4970
RA_OF_ASC_NODE = 115.7257
ARG_OF_PERICENTER = 165.3892
MEAN_ANOMALY   = 194.7711

EPHEMERIS_TYPE = 0
CLASSIFICATION_TYPE = U
NORAD_CAT_ID   = 21422
ELEMENT_SET_NO = 999
REV_AT_EPOCH   = 85821
BSTAR          = .16488E-3
MEAN_MOTION_DOT = .2078E-4
MEAN_MOTION_DDOT = 0

